ORBCOMM FM24 [-]        
1 25478U 98053D   24005.71186187  .00000945  00000+0  37733-3 0  9994
2 25478  45.0076 248.6031 0001543  66.2588 293.8421 14.35084132321738
ORBCOMM FM25 [-]        
1 25479U 98053E   24005.11970526  .00000807  00000+0  32968-3 0  9999
2 25479  45.0076 249.6334 0003495 102.6406 257.4832 14.35063533321664
ORBCOMM FM26 [-]        
1 25480U 98053F   24005.01140524  .00000772  00000+0  32030-3 0  9998
2 25480  45.0070 243.7699 0005300 132.8007 227.3286 14.34589146321591
ORBCOMM FM27 [+]        
1 25481U 98053G   24005.10590124  .00000887  00000+0  35762-3 0  9996
2 25481  45.0059 249.9585 0000925 348.6646  11.4180 14.35041226321593
ORBCOMM FM28 [-]        
1 25482U 98053H   24005.61981166  .00000849  00000+0  34128-3 0  9996
2 25482  45.0044 186.4386 0004419 165.8261 194.2711 14.35506375322509
ORBCOMM FM30 [-]        
1 25980U 99065A   24005.54270861  .00000942  00000+0  37899-3 0  9990
2 25980  45.0330  66.6703 0008054 244.3726 115.6290 14.34728262258990
ORBCOMM FM31 [-]        
1 25981U 99065B   24005.57870834  .00000904  00000+0  36555-3 0  9996
2 25981  45.0246  60.2918 0005280 263.0799  96.9448 14.34742164258028
ORBCOMM FM32 [+]        
1 25982U 99065C   24005.60913844  .00000873  00000+0  36186-3 0  9995
2 25982  45.0170  73.0359 0007437 261.6714  98.3290 14.33689721258673
